start=new Date('2022-04-28T00:00:00.000Z').valueOf();
sats=[{"SEMIMAJOR_AXIS":"6925.387","MEAN_MOTION_DOT":"-0.00002444","FILE":"3418497","PERIAPSIS":"546.039","GP_ID":"202158615","BSTAR":"-0.00014525000000","RCS_SIZE":"LARGE","ECCENTRICITY":"0.00017510","EPHEMERIS_TYPE":"0","TLE_LINE1":"1 48369U 21038S   22117.44238041 -.00002444  00000-0 -14525-3 0  9999","COUNTRY_CODE":"US","RA_OF_ASC_NODE":"211.4429","INCLINATION":"53.0556","TLE_LINE2":"2 48369  53.0556 211.4429 0001751  47.9994 312.1144 15.06387575 54300","NORAD_CAT_ID":"48369","OBJECT_NAME":"STARLINK-2641","SITE":"AFETR","REV_AT_EPOCH":"5430","MEAN_MOTION_DDOT":"0.0000000000000","PERIOD":"95.593","DECAY_DATE":null,"CENTER_NAME":"EARTH","APOAPSIS":"548.464","OBJECT_ID":"2021-038S","TIME_SYSTEM":"UTC","EPOCH":"2022-04-27T10:37:01.667424","REF_FRAME":"TEME","OBJECT_TYPE":"PAYLOAD","LAUNCH_DATE":"2021-05-04","ELEMENT_SET_NO":"999","MEAN_ANOMALY":"312.1144","MEAN_ELEMENT_THEORY":"SGP4","MEAN_MOTION":"15.06387575","CLASSIFICATION_TYPE":"U","ARG_OF_PERICENTER":"47.9994"},{"INCLINATION":"53.0560","RA_OF_ASC_NODE":"211.1647","COUNTRY_CODE":"US","TLE_LINE2":"2 48370  53.0560 211.1647 0001698  54.4206 305.6941 15.06399433 54314","PERIAPSIS":"546.039","MEAN_MOTION_DOT":"0.00001425","FILE":"3418497","SEMIMAJOR_AXIS":"6925.350","EPHEMERIS_TYPE":"0","TLE_LINE1":"1 48370U 21038T   22117.50503904  .00001425  00000-0  11453-3 0  9994","BSTAR":"0.00011453000000","ECCENTRICITY":"0.00016980","RCS_SIZE":"LARGE","GP_ID":"202158360","EPOCH":"2022-04-27T12:07:15.373056","TIME_SYSTEM":"UTC","OBJECT_ID":"2021-038T","ARG_OF_PERICENTER":"54.4206","MEAN_MOTION":"15.06399433","CLASSIFICATION_TYPE":"U","MEAN_ANOMALY":"305.6941","LAUNCH_DATE":"2021-05-04","ELEMENT_SET_NO":"999","MEAN_ELEMENT_THEORY":"SGP4","REF_FRAME":"TEME","OBJECT_TYPE":"PAYLOAD","OBJECT_NAME":"STARLINK-2621","NORAD_CAT_ID":"48370","CENTER_NAME":"EARTH","DECAY_DATE":null,"APOAPSIS":"548.391","PERIOD":"95.592","MEAN_MOTION_DDOT":"0.0000000000000","REV_AT_EPOCH":"5431","SITE":"AFETR"},{"PERIAPSIS":"545.936","FILE":"3418497","MEAN_MOTION_DOT":"0.00009754","SEMIMAJOR_AXIS":"6925.324","TLE_LINE1":"1 48371U 21038U   22117.50135424  .00009754  00000-0  67266-3 0  9999","EPHEMERIS_TYPE":"0","ECCENTRICITY":"0.00018090","RCS_SIZE":"LARGE","BSTAR":"0.00067266000000","GP_ID":"202157114","INCLINATION":"53.0534","RA_OF_ASC_NODE":"211.1899","COUNTRY_CODE":"US","TLE_LINE2":"2 48371  53.0534 211.1899 0001809  50.9823 309.1326 15.06408115 54319","OBJECT_NAME":"STARLINK-2589","NORAD_CAT_ID":"48371","APOAPSIS":"548.441","DECAY_DATE":null,"CENTER_NAME":"EARTH","PERIOD":"95.592","MEAN_MOTION_DDOT":"0.0000000000000","REV_AT_EPOCH":"5431","SITE":"AFETR","EPOCH":"2022-04-27T12:01:57.006336","TIME_SYSTEM":"UTC","OBJECT_ID":"2021-038U","ARG_OF_PERICENTER":"50.9823","CLASSIFICATION_TYPE":"U","MEAN_MOTION":"15.06408115","LAUNCH_DATE":"2021-05-04","MEAN_ANOMALY":"309.1326","ELEMENT_SET_NO":"999","MEAN_ELEMENT_THEORY":"SGP4","REF_FRAME":"TEME","OBJECT_TYPE":"PAYLOAD"},{"ARG_OF_PERICENTER":"41.4974","CLASSIFICATION_TYPE":"U","MEAN_MOTION":"15.06412817","LAUNCH_DATE":"2021-05-04","ELEMENT_SET_NO":"999","MEAN_ANOMALY":"318.6142","MEAN_ELEMENT_THEORY":"SGP4","OBJECT_TYPE":"PAYLOAD","REF_FRAME":"TEME","EPOCH":"2022-04-27T13:32:10.171968","TIME_SYSTEM":"UTC","OBJECT_ID":"2021-038V","APOAPSIS":"548.339","CENTER_NAME":"EARTH","DECAY_DATE":null,"PERIOD":"95.591","REV_AT_EPOCH":"5432","MEAN_MOTION_DDOT":"0.0000000000000","SITE":"AFETR","OBJECT_NAME":"STARLINK-2572","NORAD_CAT_ID":"48372","TLE_LINE2":"2 48372  53.0538 210.9080 0001682  41.4974 318.6142 15.06412817 54320","INCLINATION":"53.0538","RA_OF_ASC_NODE":"210.9080","COUNTRY_CODE":"US","EPHEMERIS_TYPE":"0","TLE_LINE1":"1 48372U 21038V   22117.56400662  .00007200  00000-0  50160-3 0  9994","ECCENTRICITY":"0.00016820","RCS_SIZE":"LARGE","BSTAR":"0.00050160000000","GP_ID":"202157864","PERIAPSIS":"546.009","FILE":"3418497","MEAN_MOTION_DOT":"0.00007200","SEMIMAJOR_AXIS":"6925.309"},{"INCLINATION":"53.0531","RA_OF_ASC_NODE":"210.9250","COUNTRY_CODE":"US","TLE_LINE2":"2 48373  53.0531 210.9250 0001536  71.1246 288.9909 15.06399563 54325","PERIAPSIS":"546.151","FILE":"3418497","MEAN_MOTION_DOT":"0.00004505","SEMIMAJOR_AXIS":"6925.350","TLE_LINE1":"1 48373U 21038W   22117.56033146  .00004505  00000-0  32112-3 0  9996","EPHEMERIS_TYPE":"0","RCS_SIZE":"LARGE","ECCENTRICITY":"0.00015360","BSTAR":"0.00032112000000","GP_ID":"202158115","EPOCH":"2022-04-27T13:26:52.638144","TIME_SYSTEM":"UTC","OBJECT_ID":"2021-038W","ARG_OF_PERICENTER":"71.1246","CLASSIFICATION_TYPE":"U","MEAN_MOTION":"15.06399563","MEAN_ELEMENT_THEORY":"SGP4","LAUNCH_DATE":"2021-05-04","ELEMENT_SET_NO":"999","MEAN_ANOMALY":"288.9909","OBJECT_TYPE":"PAYLOAD","REF_FRAME":"TEME","OBJECT_NAME":"STARLINK-2609","NORAD_CAT_ID":"48373","APOAPSIS":"548.279","CENTER_NAME":"EARTH","DECAY_DATE":null,"PERIOD":"95.592","MEAN_MOTION_DDOT":"0.0000000000000","REV_AT_EPOCH":"5432","SITE":"AFETR"},{"RA_OF_ASC_NODE":"210.9369","COUNTRY_CODE":"US","INCLINATION":"53.0534","TLE_LINE2":"2 48374  53.0534 210.9369 0001691  50.3993 309.7145 15.06386208 54326","SEMIMAJOR_AXIS":"6925.391","PERIAPSIS":"546.085","FILE":"3418497","MEAN_MOTION_DOT":"0.00001210","RCS_SIZE":"LARGE","ECCENTRICITY":"0.00016910","BSTAR":"0.00010013000000","GP_ID":"202158861","EPHEMERIS_TYPE":"0","TLE_LINE1":"1 48374U 21038X   22117.55664970  .00001210  00000-0  10013-3 0  9997","TIME_SYSTEM":"UTC","OBJECT_ID":"2021-038X","EPOCH":"2022-04-27T13:21:34.534080","LAUNCH_DATE":"2021-05-04","ELEMENT_SET_NO":"999","MEAN_ELEMENT_THEORY":"SGP4","MEAN_ANOMALY":"309.7145","REF_FRAME":"TEME","OBJECT_TYPE":"PAYLOAD","ARG_OF_PERICENTER":"50.3993","MEAN_MOTION":"15.06386208","CLASSIFICATION_TYPE":"U","NORAD_CAT_ID":"48374","OBJECT_NAME":"STARLINK-2604","MEAN_MOTION_DDOT":"0.0000000000000","REV_AT_EPOCH":"5432","SITE":"AFETR","APOAPSIS":"548.427","CENTER_NAME":"EARTH","DECAY_DATE":null,"PERIOD":"95.593"},{"NORAD_CAT_ID":"48375","OBJECT_NAME":"STARLINK-2603","MEAN_MOTION_DDOT":"0.0000000000000","REV_AT_EPOCH":"5432","SITE":"AFETR","APOAPSIS":"548.416","DECAY_DATE":null,"CENTER_NAME":"EARTH","PERIOD":"95.592","TIME_SYSTEM":"UTC","OBJECT_ID":"2021-038Y","EPOCH":"2022-04-27T13:16:15.400992","MEAN_ELEMENT_THEORY":"SGP4","LAUNCH_DATE":"2021-05-04","ELEMENT_SET_NO":"999","MEAN_ANOMALY":"308.1578","REF_FRAME":"TEME","OBJECT_TYPE":"PAYLOAD","ARG_OF_PERICENTER":"51.9568","MEAN_MOTION":"15.06402475","CLASSIFICATION_TYPE":"U","SEMIMAJOR_AXIS":"6925.341","PERIAPSIS":"545.996","FILE":"3418497","MEAN_MOTION_DOT":"0.00005091","ECCENTRICITY":"0.00017470","RCS_SIZE":"LARGE","BSTAR":"0.00036039000000","GP_ID":"202157615","EPHEMERIS_TYPE":"0","TLE_LINE1":"1 48375U 21038Y   22117.55295603  .00005091  00000-0  36039-3 0  9998","RA_OF_ASC_NODE":"210.9539","COUNTRY_CODE":"US","INCLINATION":"53.0548","TLE_LINE2":"2 48375  53.0548 210.9539 0001747  51.9568 308.1578 15.06402475 54326"},{"COUNTRY_CODE":"US","RA_OF_ASC_NODE":"210.9768","INCLINATION":"53.0534","TLE_LINE2":"2 48376  53.0534 210.9768 0001692  61.2529 298.8630 15.06412059 54329","SEMIMAJOR_AXIS":"6925.312","FILE":"3418497","MEAN_MOTION_DOT":"0.00009038","PERIAPSIS":"546.005","GP_ID":"202157364","ECCENTRICITY":"0.00016920","RCS_SIZE":"LARGE","BSTAR":"0.00062464000000","EPHEMERIS_TYPE":"0","TLE_LINE1":"1 48376U 21038Z   22117.54926424  .00009038  00000-0  62464-3 0  9996","OBJECT_ID":"2021-038Z","TIME_SYSTEM":"UTC","EPOCH":"2022-04-27T13:10:56.430336","REF_FRAME":"TEME","OBJECT_TYPE":"PAYLOAD","LAUNCH_DATE":"2021-05-04","ELEMENT_SET_NO":"999","MEAN_ELEMENT_THEORY":"SGP4","MEAN_ANOMALY":"298.8630","MEAN_MOTION":"15.06412059","CLASSIFICATION_TYPE":"U","ARG_OF_PERICENTER":"61.2529","NORAD_CAT_ID":"48376","OBJECT_NAME":"STARLINK-2610","SITE":"AFETR","REV_AT_EPOCH":"5432","MEAN_MOTION_DDOT":"0.0000000000000","PERIOD":"95.591","APOAPSIS":"548.348","DECAY_DATE":null,"CENTER_NAME":"EARTH"},{"PERIOD":"95.592","CENTER_NAME":"EARTH","DECAY_DATE":null,"APOAPSIS":"548.458","SITE":"AFETR","MEAN_MOTION_DDOT":"0.0000000000000","REV_AT_EPOCH":"5432","OBJECT_NAME":"STARLINK-2499","NORAD_CAT_ID":"48377","CLASSIFICATION_TYPE":"U","MEAN_MOTION":"15.06401739","ARG_OF_PERICENTER":"49.0132","OBJECT_TYPE":"PAYLOAD","REF_FRAME":"TEME","MEAN_ANOMALY":"311.1013","LAUNCH_DATE":"2021-05-04","ELEMENT_SET_NO":"999","MEAN_ELEMENT_THEORY":"SGP4","EPOCH":"2022-04-27T13:05:38.470560","OBJECT_ID":"2021-038AA","TIME_SYSTEM":"UTC","TLE_LINE1":"1 48377U 21038AA  22117.54558415  .00000953  00000-0  82877-4 0  9996","EPHEMERIS_TYPE":"0","GP_ID":"202158616","BSTAR":"0.00008287700000","RCS_SIZE":"LARGE","ECCENTRICITY":"0.00018040","MEAN_MOTION_DOT":"0.00000953","FILE":"3418497","PERIAPSIS":"545.959","SEMIMAJOR_AXIS":"6925.343","TLE_LINE2":"2 48377  53.0525 210.9839 0001804  49.0132 311.1013 15.06401739 54325","INCLINATION":"53.0525","COUNTRY_CODE":"US","RA_OF_ASC_NODE":"210.9839"},{"TIME_SYSTEM":"UTC","OBJECT_ID":"2021-038AB","EPOCH":"2022-04-27T17:46:56.412480","LAUNCH_DATE":"2021-05-04","MEAN_ELEMENT_THEORY":"SGP4","ELEMENT_SET_NO":"999","MEAN_ANOMALY":"309.1721","REF_FRAME":"TEME","OBJECT_TYPE":"PAYLOAD","ARG_OF_PERICENTER":"50.9431","MEAN_MOTION":"15.06404926","CLASSIFICATION_TYPE":"U","NORAD_CAT_ID":"48378","OBJECT_NAME":"STARLINK-2526","MEAN_MOTION_DDOT":"0.0000000000000","REV_AT_EPOCH":"5494","SITE":"AFETR","CENTER_NAME":"EARTH","DECAY_DATE":null,"APOAPSIS":"548.473","PERIOD":"95.592","RA_OF_ASC_NODE":"210.1112","COUNTRY_CODE":"US","INCLINATION":"53.0543","TLE_LINE2":"2 48378  53.0543 210.1112 0001840  50.9431 309.1721 15.06404926 54947","SEMIMAJOR_AXIS":"6925.333","PERIAPSIS":"545.924","MEAN_MOTION_DOT":"0.00006597","FILE":"3418697","BSTAR":"0.00046129000000","ECCENTRICITY":"0.00018400","RCS_SIZE":"LARGE","GP_ID":"202166285","TLE_LINE1":"1 48378U 21038AB  22117.74093070  .00006597  00000-0  46129-3 0  9999","EPHEMERIS_TYPE":"0"}];
